[{"OBJECT_NAME":"YAOGAN-14","OBJECT_ID":"2012-021A","EPOCH":"2026-03-09T23:13:16.463424","MEAN_MOTION":15.26486019,"ECCENTRICITY":0.00056417,"INCLINATION":97.2863,"RA_OF_ASC_NODE":208.4378,"ARG_OF_PERICENTER":161.6562,"MEAN_ANOMALY":198.4882,"EPHEMERIS_TYPE":0,"CLASSIFICATION_TYPE":"U","NORAD_CAT_ID":38257,"ELEMENT_SET_NO":999,"REV_AT_EPOCH":77067,"BSTAR":0.00037795498,"MEAN_MOTION_DOT":9.798e-5,"MEAN_MOTION_DDOT":0},{"OBJECT_NAME":"STARLINK-32541","OBJECT_ID":"2024-207E","EPOCH":"2026-03-09T00:01:24.014496","MEAN_MOTION":15.2760625,"ECCENTRICITY":0.00024528,"INCLINATION":43.0043,"RA_OF_ASC_NODE":289.3603,"ARG_OF_PERICENTER":271.0814,"MEAN_ANOMALY":88.9756,"EPHEMERIS_TYPE":0,"CLASSIFICATION_TYPE":"U","NORAD_CAT_ID":61916,"ELEMENT_SET_NO":999,"REV_AT_EPOCH":7457,"BSTAR":0.0014287403,"MEAN_MOTION_DOT":0.00039296,"MEAN_MOTION_DDOT":0}]
